GLOBAL-19               
1 55982U 23041B   26166.41021281  .00009350  00000+0  25106-3 0  9992
2 55982  41.9998 212.2489 0009122 350.7083   9.3586 15.37989803181654
BRO-9                   
1 56185U 23054H   26168.07405672  .00742204  28587-3  98118-3 0  9995
2 56185  97.2919  86.6249 0008433 169.1361 191.0105 16.06773771179070
ION SCV-010             
1 56192U 23054Q   26167.96326887  .00003747  00000+0  14744-3 0  9991
2 56192  97.3781  57.4676 0012157 197.8994 162.1818 15.26195065176166
TELEOS-2                
1 56310U 23057C   26167.95615209  .00000688  00000+0  27995-7 0  9991
2 56310   9.9868 205.8594 0000158 213.0627 146.9577 14.96411129172765
SNIPE 4                 
1 56744U 23072B   26168.14907919  .00018158  00000+0  42252-3 0  9993
2 56744  97.5245  14.1527 0004399 338.5941  21.5121 15.42351695170100
SNIPE 2                 
1 56745U 23072C   26168.19201966  .00020108  00000+0  40167-3 0  9999
2 56745  97.5238  17.2409 0004170  14.3381 345.7986 15.46847509170243
2023-072G               
1 56749U 23072G   26168.19247149  .00023276  00000+0  40809-3 0  9998
2 56749  97.4897  16.0447 0002778   9.4099 350.7204 15.50572318170460
GEISAT PRECURSOR        
1 56934U 23084C   26168.15367567  .00006401  00000+0  19310-3 0  9994
2 56934  97.6229 309.1051 0004945 358.0688   2.0535 15.34651128167525
BLACKJACK ACES-3        
1 56950U 23084U   26168.10423753  .00004434  00000+0  21854-3 0  9997
2 56950  97.6215 303.2939 0002582  37.7847 322.3568 15.18470397167153
BLACKJACK ACES-2        
1 56955U 23084Z   26168.17623141  .00005218  00000+0  25606-3 0  9992
2 56955  97.6215 303.4513 0001037  75.1269 285.0079 15.18544025167170
BLACKJACK ACES-1        
1 56956U 23084AA  26167.96647625  .00005515  00000+0  26996-3 0  9995
2 56956  97.6203 303.0138 0001280 104.1030 256.0346 15.18603333116869
ION SCV-011             
1 56957U 23084AB  26168.13174572  .00004114  00000+0  14983-3 0  9999
2 56957  98.1376 355.4055 0008014  45.8481 314.3414 15.28845406165801
GHOST-3                 
1 56958U 23084AC  26168.16350039  .00013621  00000+0  26339-3 0  9998
2 56958  97.6217 316.7335 0005475 294.1049  65.9627 15.47877408168017
TOMORROW-R2             
1 56962U 23084AG  26167.98258161  .00632145  20786-3  75226-3 0  9999
2 56962  97.6062 332.1932 0008449 244.3516 115.6893 16.08427291169024
AFR-1                   
1 56964U 23084AJ  26168.16686542  .00003796  00000+0  13935-3 0  9996
2 56964  97.6278 304.8568 0009946 346.9625  13.1355 15.28555270167224
METEOR-M2 3             
1 57166U 23091A   26168.16873390  .00000006  00000+0  21477-4 0  9990
2 57166  98.6090 223.1474 0004359 155.4354 204.7033 14.24046815154510
UMKA 1 (RS40S)          
1 57172U 23091G   26168.15971516  .00004936  00000+0  22640-3 0  9993
2 57172  97.5048 226.8569 0014237 117.7218 242.5463 15.20818474164006
2023-091H               
1 57173U 23091H   26168.18296919  .00009572  00000+0  34570-3 0  9990
2 57173  97.5046 231.3749 0011266 113.0444 247.1984 15.28636900164307
2023-091J               
1 57174U 23091J   26168.18839227  .00002866  00000+0  16149-3 0  9997
2 57174  97.5053 221.2849 0014307 142.9975 217.2246 15.13926941163639
CUBEBEL 2 (EU11S)       
1 57175U 23091K   26168.18384053  .00010837  00000+0  38488-3 0  9997
2 57175  97.5049 231.4006 0011285 114.6617 245.5799 15.29152505164300
SITRO-AIS 5 (KATYS)     
1 57176U 23091L   26168.13541188  .00009863  00000+0  34714-3 0  9992
2 57176  97.5059 232.0342 0012771 103.5483 256.7180 15.29456167164333
ZORKIY-2M 1             
1 57177U 23091M   26168.14610796  .00005266  00000+0  24066-3 0  9998
2 57177  97.5088 227.1115 0014801 115.3059 244.9712 15.20903385163996
CUBESX-HSE 3 (RS42S)    
1 57178U 23091N   26168.17384297  .00010474  00000+0  34912-3 0  9994
2 57178  97.5090 233.7608 0012048  94.8556 265.4061 15.31215634164423
MONITOR-3 (RS58S)       
1 57180U 23091Q   26168.13280888  .00008331  00000+0  30846-3 0  9995
2 57180  97.5082 231.5784 0013102 100.9442 259.3272 15.27840413164287
MONITOR-4 (RS57S)       
1 57182U 23091S   26168.17735926  .00008730  00000+0  32223-3 0  9993
2 57182  97.5075 231.5947 0013105 101.2533 259.0179 15.27927519164297
MONITOR-2 (RS39S)       
1 57184U 23091U   26168.18093426  .00004210  00000+0  20465-3 0  9992
2 57184  97.5071 226.4639 0012746 111.1192 249.1405 15.18910415163958
SVYATOBOR 1 (RS60S)     
1 57187U 23091X   26168.19044277  .00007539  00000+0  29017-3 0  9995
2 57187  97.5088 232.0074 0010873  94.3748 265.8733 15.26615803164315
HORS 1                  
1 57188U 23091Y   26168.17598215  .00007131  00000+0  27380-3 0  9999
2 57188  97.5065 231.7553 0010337  94.4554 265.7866 15.26721981164311
VIZARD-METEO (RS38S)    
1 57189U 23091Z   26168.14761780  .00013445  00000+0  38499-3 0  9994
2 57189  97.5092 237.6319 0008271  77.7825 282.4344 15.36025142164680
SITRO-AIS 6 (CHIRKIN)   
1 57192U 23091AC  26168.17981523  .00008157  00000+0  31995-3 0  9998
2 57192  97.5065 231.1982 0013109 106.5937 253.6741 15.25934777164288
