OBJECT_NAME,OBJECT_ID,EPOCH,MEAN_MOTION,ECCENTRICITY,INCLINATION,RA_OF_ASC_NODE,ARG_OF_PERICENTER,MEAN_ANOMALY,EPHEMERIS_TYPE,CLASSIFICATION_TYPE,NORAD_CAT_ID,ELEMENT_SET_NO,REV_AT_EPOCH,BSTAR,MEAN_MOTION_DOT,MEAN_MOTION_DDOT
GLOBAL-19,2023-041B,2026-06-15T09:50:42.386784,15.37989803,.00091226,41.9998,212.2489,350.7083,9.3586,0,U,55982,999,18165,.25105828E-3,.935E-4,0
BRO-9,2023-054H,2026-06-17T01:46:38.500608,16.06773771,.0008433,97.2919,86.6249,169.1361,191.0105,0,U,56185,999,17907,.98118E-3,.742204E-2,.28587E-3
ION SCV-010,2023-054Q,2026-06-16T23:07:06.430368,15.26195065,.0012157,97.3781,57.4676,197.8994,162.1818,0,U,56192,999,17616,.14744E-3,.3747E-4,0
TELEOS-2,2023-057C,2026-06-16T22:56:51.540576,14.96411129,.0000158,9.9868,205.8594,213.0627,146.9577,0,U,56310,999,17276,.27995E-7,.688E-5,0
SNIPE 4,2023-072B,2026-06-17T03:34:40.442016,15.42351695,.0004399,97.5245,14.1527,338.5941,21.5121,0,U,56744,999,17010,.42252E-3,.18158E-3,0
SNIPE 2,2023-072C,2026-06-17T04:36:30.498624,15.46847509,.000417,97.5238,17.2409,14.3381,345.7986,0,U,56745,999,17024,.40167E-3,.20108E-3,0
2023-072G,2023-072G,2026-06-17T04:37:09.536736,15.50572318,.0002778,97.4897,16.0447,9.4099,350.7204,0,U,56749,999,17046,.40809E-3,.23276E-3,0
GEISAT PRECURSOR,2023-084C,2026-06-17T03:41:17.577888,15.34651128,.0004945,97.6229,309.1051,358.0688,2.0535,0,U,56934,999,16752,.1931E-3,.6401E-4,0
BLACKJACK ACES-3,2023-084U,2026-06-17T02:30:06.122592,15.18470397,.0002582,97.6215,303.2939,37.7847,322.3568,0,U,56950,999,16715,.21854E-3,.4434E-4,0
BLACKJACK ACES-2,2023-084Z,2026-06-17T04:13:46.393824,15.18544025,.0001037,97.6215,303.4513,75.1269,285.0079,0,U,56955,999,16717,.25606E-3,.5218E-4,0
BLACKJACK ACES-1,2023-084AA,2026-06-16T23:11:43.548000,15.18603333,.000128,97.6203,303.0138,104.1030,256.0346,0,U,56956,999,11686,.26996E-3,.5515E-4,0
ION SCV-011,2023-084AB,2026-06-17T03:09:42.830208,15.28845406,.0008014,98.1376,355.4055,45.8481,314.3414,0,U,56957,999,16580,.14983E-3,.4114E-4,0
GHOST-3,2023-084AC,2026-06-17T03:55:26.433696,15.47877408,.0005475,97.6217,316.7335,294.1049,65.9627,0,U,56958,999,16801,.26339E-3,.13621E-3,0
TOMORROW-R2,2023-084AG,2026-06-16T23:34:55.051104,16.08427291,.0008449,97.6062,332.1932,244.3516,115.6893,0,U,56962,999,16902,.75226E-3,.632145E-2,.20786E-3
AFR-1,2023-084AJ,2026-06-17T04:00:17.172288,15.28555270,.0009946,97.6278,304.8568,346.9625,13.1355,0,U,56964,999,16722,.13935E-3,.3796E-4,0
METEOR-M2 3,2023-091A,2026-06-17T04:02:58.608960,14.24046815,.0004359,98.6090,223.1474,155.4354,204.7033,0,U,57166,999,15451,.21477E-4,.6E-7,0
UMKA 1 (RS40S),2023-091G,2026-06-17T03:49:59.389824,15.20818474,.0014237,97.5048,226.8569,117.7218,242.5463,0,U,57172,999,16400,.2264E-3,.4936E-4,0
2023-091H,2023-091H,2026-06-17T04:23:28.538016,15.28636900,.0011266,97.5046,231.3749,113.0444,247.1984,0,U,57173,999,16430,.3457E-3,.9572E-4,0
2023-091J,2023-091J,2026-06-17T04:31:17.092128,15.13926941,.0014307,97.5053,221.2849,142.9975,217.2246,0,U,57174,999,16363,.16149E-3,.2866E-4,0
CUBEBEL 2 (EU11S),2023-091K,2026-06-17T04:24:43.821792,15.29152505,.0011285,97.5049,231.4006,114.6617,245.5799,0,U,57175,999,16430,.38488E-3,.10837E-3,0
SITRO-AIS 5 (KATYS),2023-091L,2026-06-17T03:14:59.586432,15.29456167,.0012771,97.5059,232.0342,103.5483,256.7180,0,U,57176,999,16433,.34714E-3,.9863E-4,0
ZORKIY-2M 1,2023-091M,2026-06-17T03:30:23.727744,15.20903385,.0014801,97.5088,227.1115,115.3059,244.9712,0,U,57177,999,16399,.24066E-3,.5266E-4,0
CUBESX-HSE 3 (RS42S),2023-091N,2026-06-17T04:10:20.032608,15.31215634,.0012048,97.5090,233.7608,94.8556,265.4061,0,U,57178,999,16442,.34912E-3,.10474E-3,0
MONITOR-3 (RS58S),2023-091Q,2026-06-17T03:11:14.687232,15.27840413,.0013102,97.5082,231.5784,100.9442,259.3272,0,U,57180,999,16428,.30846E-3,.8331E-4,0
MONITOR-4 (RS57S),2023-091S,2026-06-17T04:15:23.840064,15.27927519,.0013105,97.5075,231.5947,101.2533,259.0179,0,U,57182,999,16429,.32223E-3,.873E-4,0
MONITOR-2 (RS39S),2023-091U,2026-06-17T04:20:32.720064,15.18910415,.0012746,97.5071,226.4639,111.1192,249.1405,0,U,57184,999,16395,.20465E-3,.421E-4,0
SVYATOBOR 1 (RS60S),2023-091X,2026-06-17T04:34:14.255328,15.26615803,.0010873,97.5088,232.0074,94.3748,265.8733,0,U,57187,999,16431,.29017E-3,.7539E-4,0
HORS 1,2023-091Y,2026-06-17T04:13:24.857760,15.26721981,.0010337,97.5065,231.7553,94.4554,265.7866,0,U,57188,999,16431,.2738E-3,.7131E-4,0
VIZARD-METEO (RS38S),2023-091Z,2026-06-17T03:32:34.177920,15.36025142,.0008271,97.5092,237.6319,77.7825,282.4344,0,U,57189,999,16468,.38499E-3,.13445E-3,0
SITRO-AIS 6 (CHIRKIN),2023-091AC,2026-06-17T04:18:56.035872,15.25934777,.0013109,97.5065,231.1982,106.5937,253.6741,0,U,57192,999,16428,.31995E-3,.8157E-4,0
